[{"OBJECT_NAME":"ONEWEB-0190","OBJECT_ID":"2021-045AF","EPOCH":"2026-03-09T19:51:38.897856","MEAN_MOTION":13.15548493,"ECCENTRICITY":0.00019287,"INCLINATION":87.8937,"RA_OF_ASC_NODE":279.0378,"ARG_OF_PERICENTER":112.8585,"MEAN_ANOMALY":247.2749,"EPHEMERIS_TYPE":0,"CLASSIFICATION_TYPE":"U","NORAD_CAT_ID":48796,"ELEMENT_SET_NO":999,"REV_AT_EPOCH":23130,"BSTAR":-0.00031694491,"MEAN_MOTION_DOT":-1.06e-6,"MEAN_MOTION_DDOT":0},{"OBJECT_NAME":"SCOUT A DEB","OBJECT_ID":"1967-092D","EPOCH":"2026-03-09T12:46:23.498688","MEAN_MOTION":13.2596294,"ECCENTRICITY":0.01876111,"INCLINATION":89.0548,"RA_OF_ASC_NODE":97.3023,"ARG_OF_PERICENTER":141.5107,"MEAN_ANOMALY":12.5046,"EPHEMERIS_TYPE":0,"CLASSIFICATION_TYPE":"U","NORAD_CAT_ID":3122,"ELEMENT_SET_NO":999,"REV_AT_EPOCH":56981,"BSTAR":0.0004073723,"MEAN_MOTION_DOT":2.09e-6,"MEAN_MOTION_DDOT":0}]
